#cP2017  9 28  0  0  0.00000000      96 ORBIT IGS14 HLM  IGS
## 1968 345600.00000000   900.00000000 58024 0.0000000000000
+   32   G01G02G03G04G05G06G07G08G09G10G11G12G13G14G15G16G17
+        G18G19G20G21G22G23G24G25G26G27G28G29G30G31G32  0  0
+          0  0  0  0  0  0  0  0  0  0  0  0  0  0  0  0  0
+          0  0  0  0  0  0  0  0  0  0  0  0  0  0  0  0  0
+          0  0  0  0  0  0  0  0  0  0  0  0  0  0  0  0  0
++         2  2  2  0  2  2  2  2  2  2  2  2  2  2  2  2  2
++         2  2  2  2  2  2  2  2  2  2  2  2  2  2  2  0  0
++         0  0  0  0  0  0  0  0  0  0  0  0  0  0  0  0  0
++         0  0  0  0  0  0  0  0  0  0  0  0  0  0  0  0  0
++         0  0  0  0  0  0  0  0  0  0  0  0  0  0  0  0  0
%c G  cc GPS ccc cccc cccc cccc cccc ccccc ccccc ccccc ccccc
%c cc cc ccc ccc cccc cccc cccc cccc ccccc ccccc ccccc ccccc
%f  1.2500000  1.025000000  0.00000000000  0.000000000000000
%f  0.0000000  0.000000000  0.00000000000  0.000000000000000
%i    0    0    0    0      0      0      0      0         0
%i    0    0    0    0      0      0      0      0         0
/* RAPID ORBIT COMBINATION FROM WEIGHTED AVERAGE OF:        
/* cod emr esa gfz jpl ngs sio usn whu                      
/* REFERENCED TO IGS TIME (IGST) AND TO WEIGHTED MEAN POLE: 
/* PCV:IGS14_1967 OL/AL:FES2004  NONE     Y  ORB:CMB CLK:CMB
*  2017  9 28 18 45  0.00000000
PG01   4701.257906  14422.767403 -21945.193749     -2.636345  6  8  3  67       
PG02  17368.745441 -14984.924517  13635.245453    319.259231  4  7  4  81       
PG03  12176.439273  22059.043339  -8485.066846    -62.486412  6  7  5  75       
PG04 -13152.760405  18812.287739  12709.393136 999999.999999
PG05   5624.017362 -15593.051998  20614.300891    -27.824766  5  7  4 113       
PG06  25645.857416  -6795.191541   1407.877252    400.884066  4  8  4  80       
PG07  19733.435099   7755.943678  16464.762709    300.180033  5  6  2 104       
PG08  -5399.657797  25734.190505  -3282.186299    -75.119714  5  5  2  77       
PG09  10434.632005  14198.179735  19845.710684    449.960542  3  8  3 110       
PG10 -20437.510865  -5550.302827 -16084.022260     76.189043  4  5     95       
PG11    292.481796  18729.787270 -19439.628658   -718.295695  6  9  4  81       
PG12  -7926.236400 -22435.998318 -12166.158284    371.139620  7 11  5 100       
PG13  12141.799083 -23532.085509   2137.420550    -92.057050  5  9  7 129       
PG14 -16919.542209  12361.543449 -15941.290058    -84.883075  6  5  3 102       
PG15   1335.043538 -25666.171500  -6028.370159   -356.210756  2  9  6 111       
PG16  -6820.052069  14015.649596  21303.206862     37.006887  4  5  5 118       
PG17  15828.651753  -2836.133114 -20741.161127   -154.100250  4  8  2 101       
PG18 -21368.188819 -14315.769628  -6400.318055    630.459489  6  7  6  87       
PG19  17280.895694 -11282.626924 -17129.578391   -483.932457  5  7  5 104       
PG20  -9684.774471 -21227.078539  12563.344458    488.066736  5 10  4  48       
PG21 -22141.407167  -5095.466739  14604.942067   -475.591353  3  6  7 102       
PG22   5701.843548  21192.134827 -14697.401742   -137.212312  7  9  5  98       
PG23   4104.347184  22001.048159  14222.005241   -217.718826  7  8  4 107       
PG24  -1818.803836 -15611.525331 -21483.297996    -40.243791  6  6  5  88       
PG25 -17306.166880 -20273.313725  -1302.209275   -463.877665  8  6  7  92       
PG26 -14733.901911   6148.976781  21242.326691   -412.885245  5  3  6 110       
PG27 -12428.440566  21910.449067   7998.931140    330.803220  6  6  4  72       
PG28  19680.427076  10790.990665 -13562.074819    649.608119  5  8  6 103       
PG29  -6460.748237 -17875.100223  18544.130520    557.509574  8  9  2 110       
PG30  25665.896033    961.042268   7067.507665    137.901663  4  7  4  91       
PG31 -25296.215255   7758.088954   4188.905022    172.293500  5  7  7  88       
PG32 -16494.435081   6416.012158 -19763.292420   -506.407593  7  5  4  88       
*  2017  9 28 19  0  0.00000000
PG01   2295.041918  15015.912626 -21906.607336     -2.637558  6  8  3  91       
PG02  18747.884366 -15156.218244  11307.450489    319.251128  5  6  5  97       
PG03  11235.688835  21421.442249 -11033.767617    -62.482335  6  7  5  59       
PG04 -13104.350606  17168.052025  14917.599728 999999.999999
PG05   7402.472477 -13946.642299  21238.569691    -27.823574  5  6  4 116       
PG06  25700.189098  -6567.702675  -1461.797458    400.886556  5  8  4  67       
PG07  17881.789227   8324.540010  18191.617167    300.176223  6  7  3 106       
PG08  -5690.323905  25881.988069   -416.728907    -75.121520  5  6  3  91       
PG09   9744.604563  16295.146155  18543.676154    449.965876  3  7  3 104       
PG10 -21520.674275  -6901.439286 -14031.244801     76.197352  4  5    106       
PG11  -1449.183580  19856.654501 -18202.399658   -718.297656  7  9  4  96       
PG12  -6855.394702 -21393.383255 -14486.725780    371.138481  7 11  6  88       
PG13  12193.715345 -23058.813654   4970.299266    -92.057742  4  8  7 130       
PG14 -16407.947027  10439.536174 -17733.993085    -84.883868  6  5  3 113       
PG15   1793.825494 -26106.776680  -3283.896803   -356.210958  2  9  6 115       
PG16  -8462.985484  12132.927982  21893.018633     37.006848  5  5  4 122       
PG17  15103.798588   -453.638057 -21459.475943   -154.097617  4  9  2  95       
PG18 -21612.837790 -15000.323009  -3705.839101    630.459633  6  8  5  94       
PG19  16660.138910  -9385.004847 -18813.688779   -483.931012  6  7  5 106       
PG20  -8291.188957 -20417.188359  14694.034756    488.067552  5 10  4  60       
PG21 -20607.894941  -5762.884228  16569.444813   -475.589040  4  7  7  69       
PG22   4181.998825  20127.430393 -16560.251130   -137.223850  7  9  4 101       
PG23   3470.813627  23363.455252  11962.971401   -217.719053  7  9  4 108       
PG24    521.118504 -16246.610854 -21054.289833    -40.244675  6  7  5  99       
PG25 -16964.673549 -20197.471817  -4153.889284   -463.883504  8  6  7  90       
PG26 -16379.731660   4421.995261  20460.435331   -412.875124  6  3  6 113       
PG27 -12345.775031  20815.892277  10622.449889    330.807366  6  6  4  93       
PG28  20514.091143  12052.650216 -11161.737560    649.610825  5  8  6  99       
PG29  -5697.640432 -19749.379552  16814.679994    557.505559  8 10  2 120       
PG30  24780.392531   1403.433615   9664.442575    137.899731  4  7  3  85       
PG31 -25641.662114   7621.191436   1370.537341    172.291191  5  7  8  97       
PG32 -15980.465976   4145.184484 -20770.557452   -506.412220  7  6  4 102       
*  2017  9 28 19 15  0.00000000
PG01    -54.443075  15730.354190 -21495.204064     -2.638708  6  8  3  85       
PG02  19866.480752 -15297.716600   8786.571910    319.242680  5  6  5  96       
PG03  10057.461966  20647.248617 -13393.141777    -62.478284  7  7  5  57       
PG04 -13110.020180  15288.414690  16859.878061 999999.999999
PG05   9296.447290 -12358.714331  21493.435399    -27.822618  5  6  4 120       
PG06  25458.792840  -6243.073570  -4306.329512    400.889030  5  8  4  87       
PG07  15892.805607   9042.251238  19614.832296    300.171636  7  7  3 110       
PG08  -5907.346610  25725.610614   2455.953053    -75.122254  5  6  3  94       
PG09   9195.326814  18262.270304  16921.805269    449.971177  2  7  2 118       
PG10 -22490.241147  -8028.997130 -11738.109984     76.205722  3  6    104       
PG11  -3026.616294  20960.518189 -16666.178501   -718.299623  7  9  3  90       
PG12  -5553.644967 -20237.119644 -16562.719065    371.137271  7 11  5  82       
PG13  12169.507420 -22288.914181   7717.556339    -92.058100  4  8  6 129       
PG14 -15942.482395   8313.391151 -19213.083470    -84.884902  7  6  3 105       
PG15   2189.945522 -26256.390723   -481.719057   -356.211586  3  9  6 114       
PG16 -10237.505963  10314.686363  22100.220901     37.007061  4  5  4 118       
PG17  14493.624221   2022.750829 -21795.158502   -154.095072  5  9  3  93       
PG18 -21654.342379 -15472.370620   -947.574919    630.460431  6  8  5 104       
PG19  16094.650441  -7292.833212 -20183.532093   -483.928932  6  7  5 100       
PG20  -6678.214554 -19537.990688  16569.722410    488.068719  5  9  4  86       
PG21 -18924.437948  -6572.689507  18264.412083   -475.586070  5  8  6  86       
PG22   2463.283404  19008.953062 -18132.835125   -137.235128  8  9  4 100       
PG23   2955.804945  24495.440808   9496.132102   -217.719157  8  9  4 102       
PG24   2764.766505 -16974.160377 -20264.586465    -40.245453  6  7  5  76       
PG25 -16385.636096 -19926.470877  -6935.215061   -463.889207  8  6  7  98       
PG26 -18030.971284   2854.711374  19327.249133   -412.865020  5  4  6 110       
PG27 -12262.967683  19436.012855  13060.449908    330.811512  7  6  5  85       
PG28  21219.665682  13050.680164  -8563.076765    649.613763  6  8  6 113       
PG29  -5096.305333 -21457.872459  14795.742085    557.501663  8 10  3 116       
PG30  23643.787821   1960.780362  12096.438975    137.897786  4  7  3 108       
PG31 -25689.130062   7414.850078  -1470.825254    172.288997  4  7  8 110       
PG32 -15565.118086   1759.471288 -21419.306591   -506.416830  8  7  4  84       
EOF
